{
  "norad_id": 67062,
  "name": "HULIANWANG DIGUI-122",
  "history": [
    {
      "epoch": "2026-03-28T21:57:39.473280Z",
      "apogee_km": 1149.3807147858324,
      "perigee_km": 1149.2458228770165,
      "latitude_deg": -2.6185059510712412e-05,
      "longitude_deg": 157.7230654347187,
      "height_km": 1149.8598557250104,
      "semi_major_axis_km": 7527.450268831424,
      "eccentricity": 8.96e-06,
      "inclination_deg": 50.0043,
      "raan_deg": 313.4662,
      "arg_perigee_deg": 126.6768,
      "mean_anomaly_deg": 233.4112,
      "mean_motion_rev_day": 13.29324226
    },
    {
      "epoch": "2026-03-29T03:22:26.018688Z",
      "apogee_km": 1149.3847607334192,
      "perigee_km": 1149.2417391786694,
      "latitude_deg": 5.643606083051159e-06,
      "longitude_deg": 75.49795173402012,
      "height_km": 1149.8614485574776,
      "semi_major_axis_km": 7527.450249956044,
      "eccentricity": 9.5e-06,
      "inclination_deg": 50.0043,
      "raan_deg": 312.6573,
      "arg_perigee_deg": 125.8757,
      "mean_anomaly_deg": 234.2124,
      "mean_motion_rev_day": 13.29324231
    },
    {
      "epoch": "2026-03-30T04:38:03.211872Z",
      "apogee_km": 1149.4006529277513,
      "perigee_km": 1149.224510607538,
      "latitude_deg": -5.2772987732182905e-05,
      "longitude_deg": 51.78052708372314,
      "height_km": 1149.8729630940513,
      "semi_major_axis_km": 7527.449581767644,
      "eccentricity": 1.17e-05,
      "inclination_deg": 50.0042,
      "raan_deg": 308.8823,
      "arg_perigee_deg": 127.9082,
      "mean_anomaly_deg": 232.18,
      "mean_motion_rev_day": 13.29324408
    },
    {
      "epoch": "2026-03-30T13:39:20.779200Z",
      "apogee_km": 1149.398940034188,
      "perigee_km": 1149.2259592458358,
      "latitude_deg": -3.3079549010074726e-05,
      "longitude_deg": -85.26135499250313,
      "height_km": 1149.8723887728827,
      "semi_major_axis_km": 7527.449449640012,
      "eccentricity": 1.149e-05,
      "inclination_deg": 50.0041,
      "raan_deg": 307.5341,
      "arg_perigee_deg": 128.3622,
      "mean_anomaly_deg": 231.726,
      "mean_motion_rev_day": 13.29324443
    },
    {
      "epoch": "2026-03-30T22:40:38.335296Z",
      "apogee_km": 1149.3975457470897,
      "perigee_km": 1149.2262210105046,
      "latitude_deg": -1.2221866060922515e-05,
      "longitude_deg": 137.6968108313616,
      "height_km": 1149.8727069573483,
      "semi_major_axis_km": 7527.448883378797,
      "eccentricity": 1.138e-05,
      "inclination_deg": 50.0041,
      "raan_deg": 306.1859,
      "arg_perigee_deg": 129.5651,
      "mean_anomaly_deg": 230.5231,
      "mean_motion_rev_day": 13.29324593
    },
    {
      "epoch": "2026-03-31T18:31:28.966656Z",
      "apogee_km": 1149.4049481611137,
      "perigee_km": 1149.2182674356409,
      "latitude_deg": -1.7980008715054415e-05,
      "longitude_deg": -163.79536048372742,
      "height_km": 1149.8833346074912,
      "semi_major_axis_km": 7527.448607798377,
      "eccentricity": 1.24e-05,
      "inclination_deg": 50.004,
      "raan_deg": 303.2198,
      "arg_perigee_deg": 134.5462,
      "mean_anomaly_deg": 225.542,
      "mean_motion_rev_day": 13.29324666
    },
    {
      "epoch": "2026-04-01T19:47:06.120096Z",
      "apogee_km": 1149.4091777209342,
      "perigee_km": 1149.2134640645909,
      "latitude_deg": -5.1570368555092955e-05,
      "longitude_deg": 172.48740231829598,
      "height_km": 1149.8925903385934,
      "semi_major_axis_km": 7527.448320892762,
      "eccentricity": 1.3e-05,
      "inclination_deg": 50.0038,
      "raan_deg": 299.4448,
      "arg_perigee_deg": 140.0612,
      "mean_anomaly_deg": 220.0269,
      "mean_motion_rev_day": 13.29324742
    },
    {
      "epoch": "2026-04-02T21:02:43.271808Z",
      "apogee_km": 1149.4195047414178,
      "perigee_km": 1149.2027142358656,
      "latitude_deg": 1.8144075441518475e-05,
      "longitude_deg": 148.77015806225555,
      "height_km": 1149.905222050512,
      "semi_major_axis_km": 7527.448109488641,
      "eccentricity": 1.44e-05,
      "inclination_deg": 50.0037,
      "raan_deg": 295.6697,
      "arg_perigee_deg": 144.1803,
      "mean_anomaly_deg": 215.9079,
      "mean_motion_rev_day": 13.29324798
    }
  ]
}